[{"OBJECT_NAME":"TIANMU-1 08","OBJECT_ID":"2023-101B","EPOCH":"2026-03-07T00:03:25.475616","MEAN_MOTION":15.29204229,"ECCENTRICITY":0.00063808,"INCLINATION":97.2717,"RA_OF_ASC_NODE":118.7901,"ARG_OF_PERICENTER":134.2174,"MEAN_ANOMALY":225.9592,"EPHEMERIS_TYPE":0,"CLASSIFICATION_TYPE":"U","NORAD_CAT_ID":57400,"ELEMENT_SET_NO":999,"REV_AT_EPOCH":14602,"BSTAR":1.4774513e-5,"MEAN_MOTION_DOT":3.46e-6,"MEAN_MOTION_DDOT":0},{"OBJECT_NAME":"STARLINK-32231","OBJECT_ID":"2024-144Q","EPOCH":"2026-03-09T16:48:05.596128","MEAN_MOTION":15.30190952,"ECCENTRICITY":9.629e-5,"INCLINATION":53.1596,"RA_OF_ASC_NODE":216.8753,"ARG_OF_PERICENTER":73.0782,"MEAN_ANOMALY":287.0325,"EPHEMERIS_TYPE":0,"CLASSIFICATION_TYPE":"U","NORAD_CAT_ID":60439,"ELEMENT_SET_NO":999,"REV_AT_EPOCH":8841,"BSTAR":2.4864362e-5,"MEAN_MOTION_DOT":3.77e-6,"MEAN_MOTION_DDOT":0}]
